{"type":"FeatureCollection","features":[{"type":"Feature","properties":{"key":"angleterre","label":"Angleterre"},"geometry":{"type":"MultiPolygon","coordinates":[[[[-2.6677,51.623],[-3.2931,51.3904],[-3.5624,51.4138],[-3.8908,51.5917],[-4.2346,51.5691],[-4.091,51.6599],[-4.3863,51.7411],[-4.9023,51.6263],[-5.1248,51.7059],[-5.2623,51.8802],[-4.1494,52.3263],[-3.9803,52.5417],[-4.0789,52.6079],[-4.1015,52.9155],[-4.6831,52.8062],[-4.2686,53.1445],[-3.7642,53.3076],[-3.3262,53.3472],[-3.0976,53.2603],[-3.1656,53.3947],[-3.0647,53.4269],[-2.9186,53.3054],[-2.7495,53.3102],[-2.9131,53.3502],[-3.0646,53.5128],[-2.9251,53.7328],[-3.0454,53.8438],[-2.8999,53.9607],[-2.8676,54.1772],[-3.166,54.1279],[-3.5694,54.4676],[-3.592,54.5644],[-3.4646,54.7731],[-3.0362,54.9531],[-3.5504,54.9474],[-3.9579,54.781],[-4.2534,54.8468],[-4.5175,54.7584],[-4.8181,54.8461],[-4.9112,54.6895],[-5.1355,54.8575],[-5.1727,54.9859],[-5.0559,54.9881],[-4.6768,55.5013],[-4.8918,55.6991],[-4.8261,55.9295],[-4.5841,55.9387],[-4.8441,56.0512],[-4.8003,56.1583],[-5.2146,55.8889],[-5.2229,56.0658],[-4.997,56.2334],[-5.3834,56.0192],[-5.3858,55.7701],[-5.5564,55.3896],[-5.6465,55.3269],[-5.7682,55.3626],[-5.6813,55.624],[-5.5045,55.8024],[-5.6229,55.8131],[-5.535,56.2508],[-5.1884,56.7581],[-5.6524,56.532],[-6.1337,56.7067],[-5.7306,56.8531],[-5.8614,56.9027],[-5.5913,57.1023],[-5.5619,57.2327],[-5.8181,57.4361],[-5.5818,57.5468],[-5.7424,57.6437],[-5.6947,57.7782],[-5.6083,57.8813],[-5.1572,57.8813],[-5.4132,58.0697],[-5.3383,58.2387],[-5.0083,58.2626],[-5.0901,58.3845],[-5.0167,58.5666],[-4.7154,58.51],[-4.1886,58.5572],[-3.0462,58.6155],[-3.2124,58.3212],[-3.99,57.959],[-4.0356,57.852],[-3.8571,57.8186],[-4.1345,57.5777],[-3.4028,57.7083],[-2.0741,57.7024],[-1.7779,57.4937],[-2.2603,56.8633],[-2.5927,56.5616],[-3.31,56.3635],[-2.8852,56.3975],[-2.6527,56.3183],[-2.6743,56.2534],[-3.3623,56.0276],[-3.7891,56.0952],[-3.0487,55.952],[-2.5993,56.0273],[-2.1471,55.903],[-1.6554,55.5704],[-1.2324,54.7037],[-0.6714,54.5039],[-0.0844,54.1181],[-0.2056,54.0217],[0.1153,53.6093],[-0.27,53.7368],[-0.6599,53.724],[-0.2937,53.6923],[0.271,53.3355],[0.3558,53.16],[0.0459,52.9056],[0.2798,52.8087],[0.5588,52.9669],[1.2713,52.9246],[1.6567,52.7537],[1.7434,52.5785],[1.5914,52.1198],[1.2324,51.9712],[1.2744,51.8454],[0.7522,51.7296],[0.898,51.6894],[0.8909,51.5714],[0.4245,51.4656],[0.8894,51.3595],[1.4149,51.3633],[1.3976,51.182],[1.0444,51.0473],[0.9602,50.9259],[0.2051,50.763],[-0.2039,50.8144],[-0.7853,50.7654],[-1.4165,50.8969],[-1.3345,50.8208],[-1.6008,50.7329],[-2.0311,50.7254],[-1.9621,50.6278],[-2.0358,50.6031],[-2.4334,50.5992],[-2.9994,50.7166],[-3.4046,50.6324],[-3.6798,50.2399],[-4.1946,50.3933],[-4.728,50.2905],[-5.1185,50.0383],[-5.6552,50.0772],[-5.5707,50.197],[-5.3423,50.2461],[-4.8936,50.5337],[-4.5829,50.7764],[-4.5231,50.9774],[-4.2965,51.0271],[-4.1882,51.1885],[-3.136,51.205],[-2.4331,51.7407],[-2.6677,51.623]]]]}},{"type":"Feature","properties":{"key":"espagne","label":"Espagne"},"geometry":{"type":"MultiPolygon","coordinates":[[[[-1.794,43.4073],[-1.7128,43.307],[-1.4107,43.2401],[-1.4805,43.0711],[-1.4288,43.0368],[-1.3,43.101],[-0.7626,42.9398],[-0.5864,42.799],[-0.2993,42.8253],[-0.0412,42.6891],[0.6316,42.6896],[0.6969,42.8451],[1.3494,42.6907],[1.4488,42.4375],[1.7061,42.5033],[1.9865,42.3585],[2.2004,42.4209],[2.6517,42.3405],[2.8914,42.4561],[3.2114,42.4312],[3.3067,42.289],[3.1664,42.2565],[3.1504,42.1625],[3.248,41.9442],[2.0826,41.2874],[1.0329,41.0621],[0.7146,40.8229],[0.8911,40.7224],[0.5961,40.6145],[-0.327,39.5199],[-0.2049,39.0626],[0.2016,38.7592],[-0.5208,38.3173],[-0.8146,37.7699],[-0.7216,37.6311],[-1.3275,37.5611],[-1.641,37.387],[-2.1115,36.7767],[-2.4528,36.8312],[-2.7875,36.7147],[-4.3668,36.7181],[-4.6741,36.5064],[-5.1715,36.4238],[-5.3609,36.1349],[-5.6255,36.0259],[-6.0407,36.1884],[-6.2689,36.5967],[-6.3841,36.637],[-6.4123,36.7289],[-6.2168,36.9136],[-6.3962,36.8316],[-6.8846,37.1942],[-6.8638,37.2789],[-6.9747,37.1984],[-7.4062,37.1794],[-7.5035,37.5855],[-7.4439,37.7283],[-7.1854,38.0063],[-7.0229,38.0447],[-6.9576,38.1879],[-7.1064,38.181],[-7.343,38.4574],[-7.2815,38.7146],[-7.046,38.907],[-6.9979,39.0564],[-7.1724,39.1352],[-7.3354,39.4651],[-7.5357,39.6616],[-7.1177,39.6817],[-6.9754,39.7984],[-6.8961,40.0218],[-7.0326,40.1679],[-6.8102,40.3431],[-6.8359,40.7775],[-6.9285,41.0091],[-6.2217,41.5604],[-6.5422,41.6725],[-6.6183,41.9424],[-7.1471,41.9812],[-7.4036,41.8337],[-7.9208,41.8836],[-8.1525,41.812],[-8.2248,41.8959],[-8.13,42.0182],[-8.2661,42.1374],[-8.8523,41.9269],[-8.8872,42.1053],[-8.6909,42.2742],[-8.8158,42.2853],[-8.73,42.4117],[-8.8121,42.4701],[-8.8115,42.6403],[-9.0331,42.5938],[-8.9272,42.7986],[-9.2352,42.9769],[-9.1781,43.174],[-8.8737,43.3344],[-8.3555,43.3968],[-8.2489,43.4394],[-8.2567,43.5799],[-7.6981,43.7646],[-7.061,43.554],[-5.8467,43.6451],[-4.523,43.4157],[-3.6046,43.5195],[-3.0456,43.3716],[-2.875,43.4544],[-2.3371,43.328],[-1.794,43.4073]]]]}},{"type":"Feature","properties":{"key":"italie","label":"Italie"},"geometry":{"type":"MultiPolygon","coordinates":[[[[7.0211,45.9258],[7.129,45.8804],[7.5386,45.9782],[7.7879,45.9218],[8.1252,46.1609],[8.0957,46.271],[8.4226,46.446],[8.4584,46.2459],[8.8186,46.0771],[8.778,45.9962],[9.0237,45.8457],[9.003,46.0149],[9.2511,46.2868],[9.3044,46.4956],[9.4276,46.4823],[9.5287,46.3062],[9.9393,46.3618],[10.0806,46.228],[10.1452,46.2535],[10.0383,46.4832],[10.087,46.5999],[10.4307,46.55],[10.4528,46.8649],[10.9933,46.777],[11.2444,46.9757],[11.7757,46.9861],[12.1694,47.0821],[12.1541,46.9353],[12.3883,46.7026],[13.7,46.5203],[13.3782,46.2616],[13.6325,46.1771],[13.4877,45.9871],[13.6006,45.9798],[13.5834,45.8124],[13.8747,45.6148],[13.7198,45.5876],[13.7833,45.6272],[13.6283,45.7709],[13.4651,45.71],[13.2063,45.7714],[13.0303,45.6375],[12.2743,45.446],[12.2257,45.2415],[12.5234,44.968],[12.3845,44.7983],[12.2789,44.8322],[12.305,44.4294],[12.3963,44.2239],[12.6911,43.9947],[13.5642,43.5713],[14.0104,42.6896],[14.5407,42.2443],[15.1687,41.934],[16.1646,41.8962],[16.1513,41.7585],[15.9138,41.6208],[15.9005,41.5121],[17.955,40.6552],[18.3282,40.3708],[18.4858,40.1048],[18.3438,39.8214],[18.0779,39.937],[17.865,40.2802],[17.3958,40.3402],[17.18,40.5028],[16.9282,40.4581],[16.6696,40.1372],[16.5219,39.7476],[16.5978,39.6389],[17.1146,39.3806],[17.1746,38.9981],[16.6167,38.8001],[16.5456,38.4091],[16.2824,38.2496],[16.0568,37.9418],[15.7245,37.9391],[15.6431,38.1754],[15.8224,38.303],[15.927,38.6717],[16.1968,38.7592],[16.21,38.9411],[16.1074,39.0238],[16.0236,39.3536],[15.6928,39.9902],[15.2945,40.07],[14.9509,40.239],[14.9477,40.4693],[14.7657,40.6684],[14.3399,40.5988],[14.4605,40.7287],[14.3089,40.8126],[14.0443,40.8123],[13.7334,41.2356],[13.0887,41.2438],[12.6309,41.4697],[11.807,42.082],[11.6373,42.2875],[11.2963,42.4233],[11.1032,42.4166],[11.1848,42.4566],[11.1678,42.5352],[10.7084,42.9363],[10.5148,42.9675],[10.5208,43.2038],[10.3205,43.5131],[10.2458,43.8521],[10.0477,44.02],[9.2894,44.3192],[8.7658,44.4223],[8.552,44.3461],[8.005,43.8768],[7.4932,43.7671],[7.482,43.8649],[7.6771,44.0832],[7.6372,44.1648],[7.3186,44.138],[6.9002,44.3357],[6.843,44.5107],[7.0307,44.7167],[6.9927,44.8273],[6.7382,44.9214],[6.6348,45.0682],[6.6923,45.1443],[7.0783,45.2399],[7.1464,45.3817],[6.7909,45.7409],[7.0211,45.9258]]],[[[15.5766,38.2203],[15.2345,37.7848],[15.0995,37.4586],[15.2957,37.0552],[15.1158,36.8393],[15.1126,36.6878],[14.5555,36.7768],[14.143,37.1037],[13.8006,37.1359],[12.8712,37.5752],[12.6402,37.5943],[12.4355,37.8198],[12.5477,38.0529],[12.7344,38.1831],[12.9027,38.0349],[13.2911,38.1915],[13.7889,37.9812],[14.506,38.0455],[14.7896,38.167],[15.1188,38.1527],[15.4987,38.2909],[15.6347,38.2676],[15.5766,38.2203]]],[[[9.632,40.882],[9.8053,40.4996],[9.643,40.2684],[9.7067,40.017],[9.5625,39.166],[9.0563,39.2392],[8.9666,38.9637],[8.6485,38.9266],[8.4182,39.2057],[8.3991,39.4816],[8.4512,39.7217],[8.5387,39.7697],[8.3993,39.9782],[8.4713,40.2927],[8.1899,40.6516],[8.2242,40.9133],[8.5719,40.8502],[9.2284,41.2571],[9.6153,41.0173],[9.5537,40.9321],[9.632,40.882]]]]}},{"type":"Feature","properties":{"key":"suisse","label":"Suisse"},"geometry":{"type":"MultiPolygon","coordinates":[[[[9.524,47.5242],[9.6259,47.467],[9.4877,47.0623],[9.8453,47.0074],[10.1335,46.8515],[10.3494,46.9848],[10.4546,46.8994],[10.4307,46.55],[10.087,46.5999],[10.0383,46.4832],[10.1283,46.2382],[9.9393,46.3618],[9.5287,46.3062],[9.4276,46.4823],[9.3044,46.4956],[9.2511,46.2868],[9.003,46.0149],[9.0467,45.8756],[8.9537,45.83],[8.778,45.9962],[8.8186,46.0771],[8.4584,46.2459],[8.4368,46.4319],[8.3707,46.4451],[8.0957,46.271],[8.1252,46.1609],[7.8523,45.9475],[7.5386,45.9782],[7.129,45.8804],[6.7721,46.1651],[6.8168,46.2752],[6.7581,46.4158],[6.4289,46.4305],[6.2347,46.3326],[6.2729,46.2522],[6.1994,46.1931],[5.9715,46.1512],[6.0959,46.2794],[6.0603,46.4282],[6.1607,46.611],[6.4102,46.7554],[6.4562,46.9483],[6.9521,47.2672],[7.0006,47.3395],[6.9004,47.3942],[6.9684,47.4532],[7.3432,47.4331],[7.6156,47.5927],[8.454,47.5962],[8.5671,47.6519],[8.4034,47.6878],[8.5727,47.7756],[8.8812,47.6564],[9.1828,47.6707],[9.524,47.5242]]]]}},{"type":"Feature","properties":{"key":"allemagne_belgique","label":"Allemagne + Belgique"},"geometry":{"type":"MultiPolygon","coordinates":[[[[9.524,47.5242],[9.1828,47.6707],[8.8812,47.6564],[8.5727,47.7756],[8.4034,47.6878],[8.5705,47.6378],[8.4301,47.5921],[7.5654,47.6065],[7.6166,48.1568],[7.838,48.636],[8.1403,48.8864],[8.1349,48.9736],[7.4506,49.1522],[6.7354,49.1606],[6.5343,49.3947],[6.3443,49.4527],[6.4873,49.7985],[6.2561,49.8722],[6.1083,50.0942],[6.1751,50.2327],[6.3645,50.3162],[6.3409,50.4518],[6.1787,50.5225],[6.2359,50.5967],[5.9939,50.7504],[6.0484,50.9049],[5.8575,51.0301],[6.13,51.1474],[6.0759,51.2241],[6.1988,51.45],[5.9487,51.8027],[6.7418,51.9109],[6.8024,51.9802],[6.7245,52.0802],[7.0196,52.266],[7.0019,52.419],[6.6916,52.5302],[6.7484,52.6341],[7.0132,52.6335],[7.1795,52.9662],[7.1973,53.2823],[7.0533,53.3758],[7.2064,53.6545],[8.0093,53.6907],[8.1671,53.5434],[8.1085,53.4677],[8.2452,53.4453],[8.3339,53.6062],[8.4927,53.5144],[8.4952,53.3942],[8.5284,53.7811],[8.6189,53.875],[9.2056,53.856],[9.5854,53.6005],[9.784,53.5546],[9.312,53.8591],[8.9781,53.9262],[8.9035,54.0003],[8.9066,54.2608],[8.6449,54.295],[8.648,54.3977],[8.9519,54.4676],[8.9572,54.5383],[8.6823,54.7918],[8.6703,54.9034],[9.255,54.808],[9.6158,54.8554],[10.0222,54.6739],[10.0288,54.5813],[9.8687,54.4725],[10.1435,54.4884],[10.2124,54.4089],[10.3604,54.4383],[10.7315,54.3163],[11.0134,54.3792],[11.0644,54.2805],[10.8107,54.0751],[10.8546,54.0098],[11.3996,53.9446],[11.7963,54.1455],[12.1113,54.1683],[12.5754,54.4674],[13.0286,54.411],[13.448,54.1409],[13.7242,54.1532],[13.8655,53.8534],[14.2589,53.7296],[14.4109,53.199],[14.1286,52.8782],[14.6194,52.5285],[14.5546,52.3597],[14.7525,52.0818],[14.6017,51.8324],[14.7249,51.6617],[14.7247,51.5239],[14.906,51.4633],[15.0166,51.2527],[14.7665,50.8183],[14.6136,50.8556],[14.5457,50.9939],[14.3197,51.0378],[14.2559,51.0019],[14.369,50.8987],[13.5567,50.7046],[12.9427,50.4064],[12.549,50.3934],[12.2773,50.1814],[12.0898,50.3018],[12.2078,50.0975],[12.512,49.8958],[12.3905,49.7396],[12.6812,49.4145],[13.8147,48.7669],[13.7239,48.5424],[13.4866,48.5818],[13.3746,48.3614],[12.7604,48.107],[12.9535,47.8906],[12.8977,47.7219],[13.0541,47.6551],[13.0144,47.4781],[12.6858,47.6693],[12.4829,47.6373],[12.2093,47.7183],[12.1856,47.6195],[11.7168,47.5835],[11.042,47.3931],[10.873,47.5202],[10.4395,47.5516],[10.3691,47.3661],[10.183,47.2788],[10.2003,47.3634],[9.9716,47.5053],[9.7489,47.5755],[9.524,47.5242]]],[[[4.2262,51.3865],[4.3737,51.356],[4.5034,51.4747],[4.634,51.4217],[4.7557,51.4911],[4.848,51.4033],[5.031,51.4691],[5.2142,51.279],[5.4769,51.2851],[5.7965,51.1531],[5.75,50.9502],[5.6395,50.8436],[5.7471,50.7596],[5.9939,50.7504],[6.2359,50.5967],[6.203,50.4991],[6.3409,50.4518],[6.3645,50.3162],[6.1751,50.2327],[6.1165,50.121],[5.9763,50.1672],[5.744,49.9196],[5.725,49.8083],[5.8804,49.6448],[5.8376,49.5783],[5.5424,49.511],[5.2788,49.6779],[4.8676,49.7881],[4.79,49.9596],[4.8187,50.1532],[4.545,49.9603],[4.1493,49.9716],[4.1746,50.2465],[3.9497,50.3359],[3.6894,50.3061],[3.5954,50.4773],[3.2733,50.5315],[3.1068,50.7794],[2.7594,50.7506],[2.5968,50.8759],[2.5249,51.0971],[3.3501,51.3777],[3.4325,51.2458],[3.5803,51.2862],[3.9021,51.2077],[4.2262,51.3865]]]]}}]}
